NORAD_CAT_ID,OBJECT_NAME,OBJECT_TYPE,EPOCH,MEAN_MOTION,ECCENTRICITY,INCLINATION,RA_OF_ASC_NODE,ARG_OF_PERICENTER,MEAN_ANOMALY,BSTAR,MEAN_MOTION_DOT,MEAN_MOTION_DDOT,TLE_LINE0,TLE_LINE1,TLE_LINE2,SEMIMAJOR_AXIS,PERIOD,APOGEE,PERIGEE,DECAYED
55392.0,STARLINK-5085,PAYLOAD,2024-03-25 04:08:53,14.98318336,0.0002466,70.0023,45.9026,256.0736,104.0149,3.2242e-05,2.92e-06,0.0,0 STARLINK-5085,1 55392U 23014B   24085.17284303  .00000292  00000-0  32242-4 0  9991,2 55392  70.0023  45.9026 0002466 256.0736 104.0149 14.98318336 64589,6950.229,96.108,573.808,570.38,0.0
55392.0,STARLINK-5085,PAYLOAD,2024-03-25 21:46:22,14.98325071,0.000246,70.0022,44.0512,255.2976,104.7911,-0.0001126,-1.436e-05,0.0,0 STARLINK-5085,1 55392U 23014B   24085.90720748 -.00001436  00000-0 -11260-3 0  9999,2 55392  70.0022  44.0512 0002460 255.2976 104.7911 14.98325071 65634,6950.208,96.107,573.783,570.363,0.0
55392.0,STARLINK-5085,PAYLOAD,2024-03-26 04:10:55,14.9832295,0.0002424,70.0024,43.3776,254.2623,105.8269,-0.00010327,-1.325e-05,0.0,0 STARLINK-5085,1 55392U 23014B   24086.17424968 -.00001325  00000-0 -10327-3 0  9994,2 55392  70.0024  43.3776 0002424 254.2623 105.8269 14.98322950 64739,6950.215,96.107,573.764,570.395,0.0
55392.0,STARLINK-5085,PAYLOAD,2024-03-26 13:47:42,14.98334377,0.0002492,70.0024,42.3667,266.249,93.8384,-8.6003e-05,-1.119e-05,0.0,0 STARLINK-5085,1 55392U 23014B   24086.57480277 -.00001119  00000-0 -86003-4 0  9999,2 55392  70.0024  42.3667 0002492 266.2490  93.8384 14.98334377 65738,6950.179,96.107,573.776,570.312,0.0
55392.0,STARLINK-5085,PAYLOAD,2024-03-26 21:48:22,14.98331275,0.0002745,70.0006,41.5236,261.5931,98.4917,0.00011857,1.322e-05,0.0,0 STARLINK-5085,1 55392U 23014B   24086.90859886  .00001322  00000-0  11857-3 0  9990,2 55392  70.0006  41.5236 0002745 261.5931  98.4917 14.98331275 65782,6950.189,96.107,573.962,570.146,0.0
55392.0,STARLINK-5085,PAYLOAD,2024-03-27 04:12:54,14.98340974,0.0002459,70.0014,40.85,262.8874,97.2005,0.00014922,1.688e-05,0.0,0 STARLINK-5085,1 55392U 23014B   24087.17563211  .00001688  00000-0  14922-3 0  9995,2 55392  70.0014  40.8500 0002459 262.8874  97.2005 14.98340974 64880,6950.159,96.106,573.733,570.315,0.0
55392.0,STARLINK-5085,PAYLOAD,2024-03-27 13:49:42,14.98374233,0.0002555,70.0033,39.8377,288.5445,71.5436,-0.00055203,-6.681e-05,0.0,0 STARLINK-5085,1 55392U 23014B   24087.57618477 -.00006681  00000-0 -55203-3 0  9991,2 55392  70.0033  39.8377 0002555 288.5445  71.5436 14.98374233 65886,6950.056,96.104,573.697,570.145,0.0
55392.0,STARLINK-5085,PAYLOAD,2024-03-27 21:50:23,14.98302669,0.0002249,70.0039,38.9967,276.1958,83.8945,0.00064559,7.613e-05,0.0,0 STARLINK-5085,1 55392U 23014B   24087.90999936  .00007613  00000-0  64559-3 0  9998,2 55392  70.0039  38.9967 0002249 276.1958  83.8945 14.98302669 65930,6950.277,96.109,573.706,570.579,0.0
55392.0,STARLINK-5085,PAYLOAD,2024-03-28 04:14:56,14.98327596,0.0002584,70.002,38.327,264.8676,95.2188,8.7439e-05,9.5e-06,0.0,0 STARLINK-5085,1 55392U 23014B   24088.17704148  .00000950  00000-0  87439-4 0  9997,2 55392  70.0020  38.3270 0002584 264.8676  95.2188 14.98327596 65037,6950.2,96.107,573.861,570.269,0.0
55392.0,STARLINK-5085,PAYLOAD,2024-03-28 13:51:44,14.98334502,0.000271,70.0018,37.3162,266.5249,93.56,6.8657e-05,7.26e-06,0.0,0 STARLINK-5085,1 55392U 23014B   24088.57759638  .00000726  00000-0  68657-4 0  9997,2 55392  70.0018  37.3162 0002710 266.5249  93.5600 14.98334502 66035,6950.179,96.107,573.927,570.16,0.0
55392.0,STARLINK-5085,PAYLOAD,2024-03-28 20:16:16,14.98341695,0.0002705,70.0017,36.6427,268.9122,91.1728,-1.9111e-05,-3.21e-06,0.0,0 STARLINK-5085,1 55392U 23014B   24088.84463281 -.00000321  00000-0 -19111-4 0  9997,2 55392  70.0017  36.6427 0002705 268.9122  91.1728 14.98341695 65136,6950.157,96.106,573.902,570.142,0.0
55392.0,STARLINK-5085,PAYLOAD,2024-03-28 21:52:24,14.98340346,0.0002845,70.0011,36.4734,270.0899,89.9934,-1.8723e-07,-9.5e-07,0.0,0 STARLINK-5085,1 55392U 23014B   24088.91139219 -.00000095  00000-0 -18723-6 0  9994,2 55392  70.0011  36.4734 0002845 270.0899  89.9934 14.98340346 66080,6950.161,96.106,574.003,570.049,0.0
55392.0,STARLINK-5085,PAYLOAD,2024-03-29 05:53:03,14.98347604,0.000288,70.0011,35.6321,266.5637,93.5192,1.1814e-05,4.8e-07,0.0,0 STARLINK-5085,1 55392U 23014B   24089.24518420  .00000048  00000-0  11814-4 0  9994,2 55392  70.0011  35.6321 0002880 266.5637  93.5192 14.98347604 65194,6950.138,96.106,574.005,570.002,0.0
55392.0,STARLINK-5085,PAYLOAD,2024-03-29 13:53:44,14.98339409,0.0002277,70.0038,34.7904,274.5858,85.5041,-8.0918e-05,-1.058e-05,0.0,0 STARLINK-5085,1 55392U 23014B   24089.57899142 -.00001058  00000-0 -80918-4 0  9998,2 55392  70.0038  34.7904 0002277 274.5858  85.5041 14.98339409 66182,6950.164,96.106,573.611,570.446,0.0
55392.0,STARLINK-5085,PAYLOAD,2024-03-29 20:18:18,14.98307757,0.0003069,70.0016,34.118,269.0131,91.0676,-0.00020295,-2.512e-05,0.0,0 STARLINK-5085,1 55392U 23014B   24089.84605221 -.00002512  00000-0 -20295-3 0  9998,2 55392  70.0016  34.1180 0003069 269.0131  91.0676 14.98307757 65288,6950.262,96.108,574.26,569.994,0.0
55392.0,STARLINK-5085,PAYLOAD,2024-03-29 21:54:27,14.98308143,0.0003036,70.0016,33.9497,269.083,90.9981,-0.00019689,-2.44e-05,0.0,0 STARLINK-5085,1 55392U 23014B   24089.91281264 -.00002440  00000-0 -19689-3 0  9998,2 55392  70.0016  33.9497 0003036 269.0830  90.9981 14.98308143 66239,6950.26,96.108,574.236,570.015,0.0
55392.0,STARLINK-5085,PAYLOAD,2024-03-30 13:55:47,14.98313627,0.0003254,70.0008,32.2668,263.6882,96.3906,-0.00015171,-1.902e-05,0.0,0 STARLINK-5085,1 55392U 23014B   24090.58041513 -.00001902  00000-0 -15171-3 0  9998,2 55392  70.0008  32.2668 0003254 263.6882  96.3906 14.98313627 66332,6950.244,96.108,574.37,569.847,0.0
55392.0,STARLINK-5085,PAYLOAD,2024-03-30 20:20:20,14.98315734,0.0003255,69.9998,31.5931,266.8643,93.2144,-0.00012687,-1.606e-05,0.0,0 STARLINK-5085,1 55392U 23014B   24090.84745562 -.00001606  00000-0 -12687-3 0  9992,2 55392  69.9998  31.5931 0003255 266.8643  93.2144 14.98315734 65434,6950.237,96.108,574.364,569.84,0.0
55392.0,STARLINK-5085,PAYLOAD,2024-03-30 21:56:28,14.98320075,0.0003028,70.0014,31.4255,270.329,89.7522,-9.8888e-05,-1.272e-05,0.0,0 STARLINK-5085,1 55392U 23014B   24090.91421322 -.00001272  00000-0 -98888-4 0  9992,2 55392  70.0014  31.4255 0003028 270.3290  89.7522 14.98320075 66389,6950.224,96.108,574.193,569.984,0.0
55392.0,STARLINK-5085,PAYLOAD,2024-03-31 04:20:59,14.98327551,0.0003019,70.0008,30.7509,267.1579,92.9234,-4.2951e-05,-6.05e-06,0.0,0 STARLINK-5085,1 55392U 23014B   24091.18124838 -.00000605  00000-0 -42951-4 0  9993,2 55392  70.0008  30.7509 0003019 267.1579  92.9234 14.98327551 65482,6950.2,96.107,574.164,569.967,0.0
55392.0,STARLINK-5085,PAYLOAD,2024-03-31 05:57:07,14.98329795,0.0003015,70.0011,30.5827,266.5525,93.5289,-2.4972e-05,-3.91e-06,0.0,0 STARLINK-5085,1 55392U 23014B   24091.24800659 -.00000391  00000-0 -24972-4 0  9997,2 55392  70.0011  30.5827 0003015 266.5525  93.5289 14.98329795 66432,6950.194,96.107,574.154,569.963,0.0
55392.0,STARLINK-5085,PAYLOAD,2024-03-31 20:22:19,14.98323666,0.0003429,69.9999,29.0684,267.321,92.7557,0.00037636,4.4e-05,0.0,0 STARLINK-5085,1 55392U 23014B   24091.84883817  .00004400  00000-0  37636-3 0  9993,2 55392  69.9999  29.0684 0003429 267.3210  92.7557 14.98323666 65582,6950.212,96.107,574.461,569.694,0.0
55392.0,STARLINK-5085,PAYLOAD,2024-03-31 21:58:27,14.98330148,0.0003268,70.0009,28.8998,268.0211,92.0574,0.00037364,4.368e-05,0.0,0 STARLINK-5085,1 55392U 23014B   24091.91559471  .00004368  00000-0  37364-3 0  9998,2 55392  70.0009  28.8998 0003268 268.0211  92.0574 14.98330148 66533,6950.192,96.107,574.329,569.786,0.0
55392.0,STARLINK-5085,PAYLOAD,2024-04-01 02:46:51,14.98334217,0.0003243,70.0006,28.3957,265.5151,94.5638,0.0004372,5.128e-05,0.0,0 STARLINK-5085,1 55392U 23014B   24092.11587117  .00005128  00000-0  43720-3 0  9997,2 55392  70.0006  28.3957 0003243 265.5151  94.5638 14.98334217 65626,6950.18,96.107,574.299,569.791,0.0
55392.0,STARLINK-5085,PAYLOAD,2024-04-01 12:23:40,14.983349,0.0002502,70.0038,27.3849,265.607,94.4803,0.00022628,2.608e-05,0.0,0 STARLINK-5085,1 55392U 23014B   24092.51643689  .00002608  00000-0  22628-3 0  9992,2 55392  70.0038  27.3849 0002502 265.6070  94.4803 14.98334900 65686,6950.178,96.107,573.782,570.304,0.0
55392.0,STARLINK-5085,PAYLOAD,2024-04-02 02:48:53,14.98332403,0.0002637,70.0021,25.8712,266.3045,93.7813,0.00012804,1.435e-05,0.0,0 STARLINK-5085,1 55392U 23014B   24093.11728010  .00001435  00000-0  12804-3 0  9993,2 55392  70.0021  25.8712 0002637 266.3045  93.7813 14.98332403 65778,6950.185,96.107,573.883,570.218,0.0
55392.0,STARLINK-5085,PAYLOAD,2024-04-02 12:25:41,14.98352619,0.0002569,70.0024,24.8608,270.8407,89.2458,-0.00036887,-4.494e-05,0.0,0 STARLINK-5085,1 55392U 23014B   24093.51783594 -.00004494  00000-0 -36887-3 0  9992,2 55392  70.0024  24.8608 0002569 270.8407  89.2458 14.98352619 65833,6950.123,96.106,573.773,570.202,0.0
55392.0,STARLINK-5085,PAYLOAD,2024-04-02 20:26:21,14.98337684,0.0002647,70.0027,24.0199,264.8935,95.1921,-0.00011359,-1.448e-05,0.0,0 STARLINK-5085,1 55392U 23014B   24093.85163827 -.00001448  00000-0 -11359-3 0  9993,2 55392  70.0027  24.0199 0002647 264.8935  95.1921 14.98337684 66825,6950.169,96.107,573.874,570.194,0.0
55392.0,STARLINK-5085,PAYLOAD,2024-04-03 02:50:53,14.98338934,0.000278,70.0016,23.3464,267.1153,92.9687,-0.00016829,-2.101e-05,0.0,0 STARLINK-5085,1 55392U 23014B   24094.11867734 -.00002101  00000-0 -16829-3 0  9995,2 55392  70.0016  23.3464 0002780 267.1153  92.9687 14.98338934 65929,6950.165,96.106,573.962,570.098,0.0
55392.0,STARLINK-5085,PAYLOAD,2024-04-03 12:27:41,14.98341528,0.0002806,70.0015,22.3363,267.8972,92.1865,-0.00015047,-1.888e-05,0.0,0 STARLINK-5085,1 55392U 23014B   24094.51923266 -.00001888  00000-0 -15047-3 0  9994,2 55392  70.0015  22.3363 0002806 267.8972  92.1865 14.98341528 66924,6950.157,96.106,573.972,570.072,0.0
